{"type": "FeatureCollection", "features": [ {"type": "Feature", "properties": {"norad_id": 66923, "name": "HULIANWANG DIGUI-113", "group": "last-30-days", "lat": 25.660836562891465, "lon": -89.1048657447654, "alt_km": 873.1052654128298, "timestamp": "2025-12-13T08:49:14.458846+00:00", "meta": {"OBJECT_NAME": "HULIANWANG DIGUI-113", "OBJECT_ID": "2025-285J", "EPOCH": "2025-12-12T21:53:48.246144", "MEAN_MOTION": 14.06056501, "ECCENTRICITY": 0.00054079, "INCLINATION": 50.0081, "RA_OF_ASC_NODE": 116.5386, "ARG_OF_PERICENTER": 296.8506, "MEAN_ANOMALY": 63.1846, "EPHEMERIS_TYPE": 0, "CLASSIFICATION_TYPE": "U", "NORAD_CAT_ID": 66923, "ELEMENT_SET_NO": 999, "REV_AT_EPOCH": 93, "BSTAR": 0.00018439421, "MEAN_MOTION_DOT": 1.52e-06, "MEAN_MOTION_DDOT": 0}, "tle": {"line1": "1 66923U 25285J   25346.91236396  .00000152  00000+0  18439-3 0  9992", "line2": "2 66923  50.0081 116.5386 0005407 296.8506  63.1846 14.06056501   932"}}, "geometry": {"type": "Point", "coordinates": [-89.1048657447654, 25.660836562891465]}}, {"type": "Feature", "properties": {"norad_id": 66924, "name": "CZ-8A R/B", "group": "last-30-days", "lat": 29.274766081408206, "lon": 141.55393708860552, "alt_km": 754.9420375171358, "timestamp": "2025-12-13T08:49:14.458856+00:00", "meta": {"OBJECT_NAME": "CZ-8A R/B", "OBJECT_ID": "2025-285K", "EPOCH": "2025-12-12T20:54:00.305568", "MEAN_MOTION": 14.30501963, "ECCENTRICITY": 0.0119323, "INCLINATION": 50.0065, "RA_OF_ASC_NODE": 115.5964, "ARG_OF_PERICENTER": 107.1996, "MEAN_ANOMALY": 254.2022, "EPHEMERIS_TYPE": 0, "CLASSIFICATION_TYPE": "U", "NORAD_CAT_ID": 66924, "ELEMENT_SET_NO": 999, "REV_AT_EPOCH": 94, "BSTAR": 9.3987023e-05, "MEAN_MOTION_DOT": 9.9e-07, "MEAN_MOTION_DDOT": 0}, "tle": {"line1": "1 66924U 25285K   25346.87083687  .00000099  00000+0  93987-4 0  9993", "line2": "2 66924  50.0065 115.5964 0119323 107.1996 254.2022 14.30501963   940"}}, "geometry": {"type": "Point", "coordinates": [141.55393708860552, 29.274766081408206]}}, {"type": "Feature", "properties": {"norad_id": 66953, "name": "HULIANWANG DIGUI-114", "group": "last-30-days", "lat": 42.67940890479735, "lon": -10.834827637130875, "alt_km": 1006.7476505146833, "timestamp": "2025-12-13T08:49:14.458869+00:00", "meta": {"OBJECT_NAME": "HULIANWANG DIGUI-114", "OBJECT_ID": "2025-287A", "EPOCH": "2025-12-11T05:43:48.442368", "MEAN_MOTION": 13.68688345, "ECCENTRICITY": 0.00085506, "INCLINATION": 86.4966, "RA_OF_ASC_NODE": 346.7027, "ARG_OF_PERICENTER": 209.4482, "MEAN_ANOMALY": 150.6197, "EPHEMERIS_TYPE": 0, "CLASSIFICATION_TYPE": "U", "NORAD_CAT_ID": 66953, "ELEMENT_SET_NO": 999, "REV_AT_EPOCH": 32, "BSTAR": 1.3583638e-05, "MEAN_MOTION_DOT": 2.8e-07, "MEAN_MOTION_DDOT": 0}, "tle": {"line1": "1 66953U 25287A   25345.23875512  .00000028  00000+0  13584-4 0  9999", "line2": "2 66953  86.4966 346.7027 0008550 209.4482 150.6197 13.68688345   322"}}, "geometry": {"type": "Point", "coordinates": [-10.834827637130875, 42.67940890479735]}}, {"type": "Feature", "properties": {"norad_id": 66954, "name": "HULIANWANG DIGUI-115", "group": "last-30-days", "lat": 44.26219235654237, "lon": -10.648124419550404, "alt_km": 1006.0618639796521, "timestamp": "2025-12-13T08:49:14.458880+00:00", "meta": {"OBJECT_NAME": "HULIANWANG DIGUI-115", "OBJECT_ID": "2025-287B", "EPOCH": "2025-12-12T22:04:40.066752", "MEAN_MOTION": 13.68791491, "ECCENTRICITY": 0.00085807, "INCLINATION": 86.4972, "RA_OF_ASC_NODE": 346.0929, "ARG_OF_PERICENTER": 203.4979, "MEAN_ANOMALY": 156.5789, "EPHEMERIS_TYPE": 0, "CLASSIFICATION_TYPE": "U", "NORAD_CAT_ID": 66954, "ELEMENT_SET_NO": 999, "REV_AT_EPOCH": 55, "BSTAR": 2.5045265e-05, "MEAN_MOTION_DOT": 3.8e-07, "MEAN_MOTION_DDOT": 0}, "tle": {"line1": "1 66954U 25287B   25346.91990818  .00000038  00000+0  25045-4 0  9999", "line2": "2 66954  86.4972 346.0929 0008580 203.4979 156.5789 13.68791491   556"}}, "geometry": {"type": "Point", "coordinates": [-10.648124419550404, 44.26219235654237]}}, {"type": "Feature", "properties": {"norad_id": 66955, "name": "HULIANWANG DIGUI-116", "group": "last-30-days", "lat": 46.03906690909045, "lon": -10.43046376099665, "alt_km": 1004.6444566195178, "timestamp": "2025-12-13T08:49:14.458892+00:00", "meta": {"OBJECT_NAME": "HULIANWANG DIGUI-116", "OBJECT_ID": "2025-287C", "EPOCH": "2025-12-12T16:48:25.869888", "MEAN_MOTION": 13.68902962, "ECCENTRICITY": 0.00079672, "INCLINATION": 86.4908, "RA_OF_ASC_NODE": 346.1651, "ARG_OF_PERICENTER": 198.3498, "MEAN_ANOMALY": 161.7375, "EPHEMERIS_TYPE": 0, "CLASSIFICATION_TYPE": "U", "NORAD_CAT_ID": 66955, "ELEMENT_SET_NO": 999, "REV_AT_EPOCH": 52, "BSTAR": 2.269262e-05, "MEAN_MOTION_DOT": 3.6e-07, "MEAN_MOTION_DDOT": 0}, "tle": {"line1": "1 66955U 25287C   25346.70029942  .00000036  00000+0  22693-4 0  9992", "line2": "2 66955  86.4908 346.1651 0007967 198.3498 161.7375 13.68902962   528"}}, "geometry": {"type": "Point", "coordinates": [-10.43046376099665, 46.03906690909045]}}, {"type": "Feature", "properties": {"norad_id": 66956, "name": "HULIANWANG DIGUI-117", "group": "last-30-days", "lat": 47.85386562382935, "lon": -10.188415091215772, "alt_km": 1003.1446822219323, "timestamp": "2025-12-13T08:49:14.458902+00:00", "meta": {"OBJECT_NAME": "HULIANWANG DIGUI-117", "OBJECT_ID": "2025-287D", "EPOCH": "2025-12-11T19:45:00.614592", "MEAN_MOTION": 13.6901764, "ECCENTRICITY": 0.00072845, "INCLINATION": 86.4968, "RA_OF_ASC_NODE": 346.4938, "ARG_OF_PERICENTER": 195.1574, "MEAN_ANOMALY": 164.9368, "EPHEMERIS_TYPE": 0, "CLASSIFICATION_TYPE": "U", "NORAD_CAT_ID": 66956, "ELEMENT_SET_NO": 999, "REV_AT_EPOCH": 40, "BSTAR": 1.8810541e-05, "MEAN_MOTION_DOT": 3.3e-07, "MEAN_MOTION_DDOT": 0}, "tle": {"line1": "1 66956U 25287D   25345.82292378  .00000033  00000+0  18811-4 0  9994", "line2": "2 66956  86.4968 346.4938 0007284 195.1574 164.9368 13.69017640   403"}}, "geometry": {"type": "Point", "coordinates": [-10.188415091215772, 47.85386562382935]}}, {"type": "Feature", "properties": {"norad_id": 66957, "name": "HULIANWANG DIGUI-118", "group": "last-30-days", "lat": 49.67908621711016, "lon": -9.931945457250393, "alt_km": 1002.1987054369611, "timestamp": "2025-12-13T08:49:14.458914+00:00", "meta": {"OBJECT_NAME": "HULIANWANG DIGUI-118", "OBJECT_ID": "2025-287E", "EPOCH": "2025-12-12T16:47:31.774848", "MEAN_MOTION": 13.69137019, "ECCENTRICITY": 0.00072192, "INCLINATION": 86.4945, "RA_OF_ASC_NODE": 346.17, "ARG_OF_PERICENTER": 190.5502, "MEAN_ANOMALY": 169.5507, "EPHEMERIS_TYPE": 0, "CLASSIFICATION_TYPE": "U", "NORAD_CAT_ID": 66957, "ELEMENT_SET_NO": 999, "REV_AT_EPOCH": 52, "BSTAR": -0.00019372766, "MEAN_MOTION_DOT": -1.51e-06, "MEAN_MOTION_DDOT": 0}, "tle": {"line1": "1 66957U 25287E   25346.69967332 -.00000151  00000+0 -19373-3 0  9996", "line2": "2 66957  86.4945 346.1700 0007219 190.5502 169.5507 13.69137019   523"}}, "geometry": {"type": "Point", "coordinates": [-9.931945457250393, 49.67908621711016]}}, {"type": "Feature", "properties": {"norad_id": 66958, "name": "CZ-6A R/B", "group": "last-30-days", "lat": 82.63740056041438, "lon": 137.64236491098492, "alt_km": 826.0295062016467, "timestamp": "2025-12-13T08:49:14.458927+00:00", "meta": {"OBJECT_NAME": "CZ-6A R/B", "OBJECT_ID": "2025-287F", "EPOCH": "2025-12-12T23:45:26.611776", "MEAN_MOTION": 13.94919345, "ECCENTRICITY": 0.01072376, "INCLINATION": 86.5058, "RA_OF_ASC_NODE": 346.0055, "ARG_OF_PERICENTER": 101.4025, "MEAN_ANOMALY": 259.9218, "EPHEMERIS_TYPE": 0, "CLASSIFICATION_TYPE": "U", "NORAD_CAT_ID": 66958, "ELEMENT_SET_NO": 999, "REV_AT_EPOCH": 57, "BSTAR": 0.000149332, "MEAN_MOTION_DOT": 2.29e-06, "MEAN_MOTION_DDOT": 0}, "tle": {"line1": "1 66958U 25287F   25346.98989134  .00000229  00000+0  14933-3 0  9994", "line2": "2 66958  86.5058 346.0055 0107237 101.4025 259.9218 13.94919345   570"}}, "geometry": {"type": "Point", "coordinates": [137.64236491098492, 82.63740056041438]}}, {"type": "Feature", "properties": {"norad_id": 66988, "name": "YAOGAN-47", "group": "last-30-days", "lat": -14.541285371998278, "lon": -129.47567854825115, "alt_km": 501.498040182757, "timestamp": "2025-12-13T08:49:14.458937+00:00", "meta": {"OBJECT_NAME": "YAOGAN-47", "OBJECT_ID": "2025-289A", "EPOCH": "2025-12-11T14:58:29.248032", "MEAN_MOTION": 15.23120362, "ECCENTRICITY": 8.584e-05, "INCLINATION": 97.5268, "RA_OF_ASC_NODE": 50.7421, "ARG_OF_PERICENTER": 73.685, "MEAN_ANOMALY": 286.448, "EPHEMERIS_TYPE": 0, "CLASSIFICATION_TYPE": "U", "NORAD_CAT_ID": 66988, "ELEMENT_SET_NO": 999, "REV_AT_EPOCH": 37, "BSTAR": 0.00024920475, "MEAN_MOTION_DOT": 5.809e-05, "MEAN_MOTION_DDOT": 0}, "tle": {"line1": "1 66988U 25289A   25345.62394963  .00005809  00000+0  24920-3 0  9995", "line2": "2 66988  97.5268  50.7421 0000858  73.6850 286.4480 15.23120362   372"}}, "geometry": {"type": "Point", "coordinates": [-129.47567854825115, -14.541285371998278]}}, {"type": "Feature", "properties": {"norad_id": 66989, "name": "CZ-4B R/B", "group": "last-30-days", "lat": 72.8300416429131, "lon": -101.90766212367296, "alt_km": 383.8652173331402, "timestamp": "2025-12-13T08:49:14.458948+00:00", "meta": {"OBJECT_NAME": "CZ-4B R/B", "OBJECT_ID": "2025-289B", "EPOCH": "2025-12-12T21:39:12.187296", "MEAN_MOTION": 15.67199194, "ECCENTRICITY": 0.01493632, "INCLINATION": 97.5266, "RA_OF_ASC_NODE": 52.2573, "ARG_OF_PERICENTER": 2.333, "MEAN_ANOMALY": 357.8593, "EPHEMERIS_TYPE": 0, "CLASSIFICATION_TYPE": "U", "NORAD_CAT_ID": 66989, "ELEMENT_SET_NO": 999, "REV_AT_EPOCH": 59, "BSTAR": 0.00085236852, "MEAN_MOTION_DOT": 0.00170532, "MEAN_MOTION_DDOT": 1.0424924e-05}, "tle": {"line1": "1 66989U 25289B   25346.90222439  .00170532  10425-4  85237-3 0  9997", "line2": "2 66989  97.5266  52.2573 0149363   2.3330 357.8593 15.67199194   592"}}, "geometry": {"type": "Point", "coordinates": [-101.90766212367296, 72.8300416429131]}}]}